[{"OBJECT_NAME":"STARLINK-32654","OBJECT_ID":"2024-239X","EPOCH":"2026-03-09T14:39:54.375264","MEAN_MOTION":15.30193069,"ECCENTRICITY":0.0001109,"INCLINATION":53.1603,"RA_OF_ASC_NODE":194.157,"ARG_OF_PERICENTER":56.0007,"MEAN_ANOMALY":304.1099,"EPHEMERIS_TYPE":0,"CLASSIFICATION_TYPE":"U","NORAD_CAT_ID":62322,"ELEMENT_SET_NO":999,"REV_AT_EPOCH":6937,"BSTAR":0.00099922,"MEAN_MOTION_DOT":0.00029345,"MEAN_MOTION_DDOT":0},{"OBJECT_NAME":"OBJECT H","OBJECT_ID":"2022-023H","EPOCH":"2026-03-09T22:57:41.313888","MEAN_MOTION":15.21889274,"ECCENTRICITY":0.00933376,"INCLINATION":63.6345,"RA_OF_ASC_NODE":356.5929,"ARG_OF_PERICENTER":305.1945,"MEAN_ANOMALY":54.0457,"EPHEMERIS_TYPE":0,"CLASSIFICATION_TYPE":"U","NORAD_CAT_ID":51953,"ELEMENT_SET_NO":999,"REV_AT_EPOCH":22114,"BSTAR":0.00043867493,"MEAN_MOTION_DOT":0.00011084,"MEAN_MOTION_DDOT":0}]
